
CSC-2                   
1 58021U 23155F   25001.15645728  .00021455  00000+0  13585-2 0  9998
2 58021  97.6044  74.4832 0005247 277.2731  82.7901 15.08977998 67590
CSC-1                   
1 58022U 23155G   25001.42939117  .00011798  00000+0  83113-3 0  9991
2 58022  97.6001  73.8650 0007738 257.0947 102.9416 15.05147805 67585
PRETTY                  
1 58023U 23155H   25001.44197616  .00029108  00000+0  17450-2 0  9998
2 58023  97.6235  76.5294 0003373  86.3560 273.8056 15.10913767 67700
MACSAT (FINCH 1)        
1 58024U 23155J   25001.64551751  .00028322  00000+0  16830-2 0  9993
2 58024  97.6296  76.9843 0004367 103.0958 257.0760 15.11236553 67735
PVCC                    
1 58025U 23155K   25001.79441012  .00019755  00000+0  13116-2 0  9992
2 58025  97.6308  76.2449 0005944 143.3395 216.8241 15.07245612 67692
STARLINK-30514          
1 58028U 23156A   25001.78887178  .00011249  00000+0  34503-3 0  9996
2 58028  53.1612 288.5149 0000822 295.3412  64.7506 15.34262944 70137
STARLINK-30518          
1 58029U 23156B   25001.77955093  .00016552  00000+0  50192-3 0  9992
2 58029  53.1621 288.4577 0000904 227.7905 132.3021 15.34274177 70134
STARLINK-30549          
1 58030U 23156C   25001.50440030  .00002781  00000+0  94012-4 0  9994
2 58030  53.1626 287.2674 0003914  86.6611 273.4840 15.34207054 70075
STARLINK-30556          
1 58031U 23156D   25001.83067695  .00009098  00000+0  32683-3 0  9996
2 58031  53.1599 294.1600 0001647  96.5902 263.5286 15.29396625 70043
STARLINK-30561          
1 58032U 23156E   25001.48582131  .00002949  00000+0  98910-4 0  9999
2 58032  53.1611 287.8718 0001258  86.8605 273.2542 15.34228018 70115
STARLINK-30562          
1 58033U 23156F   25001.66460229  .00028382  00000+0  19933-2 0  9998
2 58033  53.1599 340.8988 0002593  90.3510 269.7777 15.04938424 69370
STARLINK-30565          
1 58034U 23156G   25001.78831020  .00007094  00000+0  22195-3 0  9995
2 58034  53.1618 286.9168 0000728  88.4687 271.6399 15.34247039 70152
STARLINK-30438          
1 58035U 23156H   25001.49105623 -.00000177  00000+0  59367-5 0  9996
2 58035  53.1628 289.4935 0002863  88.4008 271.7323 15.34214110 70043
STARLINK-30437          
1 58036U 23156J   25001.81712422 -.00084759  00000+0 -25933-2 0  9992
2 58036  53.1617 287.9672 0009674  97.0582 263.1521 15.33513006 70032
STARLINK-30533          
1 58037U 23156K   25001.65709419  .00007803  00000+0  56407-3 0  9991
2 58037  53.1618 340.8475 0001622  87.4949 272.6227 15.04912836 69374
STARLINK-30560          
1 58038U 23156L   25001.21158712  .00010487  00000+0  32268-3 0  9999
2 58038  53.1591 291.3062 0001577  72.5760 287.5415 15.34241285 69990
STARLINK-30559          
1 58039U 23156M   25001.67103837  .00015898  00000+0  11270-2 0  9998
2 58039  53.1611 340.9433 0001640  72.9310 287.1859 15.04939745 69375
STARLINK-30555          
1 58040U 23156N   25001.66779355  .00000690  00000+0  67489-4 0  9992
2 58040  53.1607 340.9277 0000454 271.1144  88.9794 15.04951596 69371
STARLINK-30542          
1 58041U 23156P   25001.50929233  .00001799  00000+0  61223-4 0  9999
2 58041  53.1618 287.6500 0001507  85.8627 274.2549 15.36078091 70113
STARLINK-30563          
1 58042U 23156Q   25001.52321464 -.00000132  00000+0  72922-5 0  9994
2 58042  53.1604 288.8256 0002586  88.4333 271.6966 15.34214887 70107
STARLINK-30564          
1 58043U 23156R   25001.75570984  .00158928  00000+0  46125-2 0  9992
2 58043  53.1577 286.7135 0002402  83.0445 277.0831 15.34424568 70157
STARLINK-30547          
1 58044U 23156S   24366.96291680 -.00001721  00000+0 -10084-3 0  9998
2 58044  53.1606 343.5985 0002316  95.6953 264.4301 15.04925882 69278
STARLINK-30550          
1 58045U 23156T   25001.55382255  .00001127  00000+0  50173-4 0  9992
2 58045  53.1594 208.5906 0001262  84.6574 275.4570 15.30199269 71212
STARLINK-30548          
1 58046U 23156U   25001.32824415  .00002619  00000+0  20226-3 0  9999
2 58046  53.1623 342.3601 0001843  96.9085 263.2115 15.04931915 69279
STARLINK-30529          
1 58047U 23156V   25001.31858947  .00000904  00000+0  82482-4 0  9994
2 58047  53.1603 342.2956 0001395  86.4617 273.6532 15.04928480 69278
STARLINK-30554          
1 58048U 23156W   25001.31537384 -.00004585  00000+0 -30106-3 0  9990
2 58048  53.1610 342.2855 0001629  86.7445 273.3731 15.04929279 69272
STARLINK-30568          
1 58051U 23158A   25001.62125380  .00001502  00000+0  12620-3 0  9994
2 58051  43.0018 218.3648 0001491 265.2079  94.8593 15.02538848 68539
STARLINK-30575          
1 58052U 23158B   25001.29553523  .00002790  00000+0  22145-3 0  9995
2 58052  43.0016 220.2192 0000974 274.1264  85.9467 15.02545542 68488
STARLINK-30577          
1 58053U 23158C   25001.28554897 -.00001424  00000+0 -90380-4 0  9992
2 58053  42.9997 220.1263 0000158 205.5572 154.5263 15.02525391 68484
STARLINK-30566          
1 58054U 23158D   24366.87999878  .00049805  00000+0  36684-2 0  9991
2 58054  42.9995 222.2647 0000966 259.7681 100.3052 15.02612876 68425
STARLINK-30544          
1 58055U 23158E   25001.79405102  .00004324  00000+0  33487-3 0  9998
2 58055  43.0001 217.0823 0001364 280.8191  79.2498 15.02544273 68511
STARLINK-30553          
1 58056U 23158F   25001.00630979  .00000444  00000+0  47914-4 0  9995
2 58056  42.9998 221.4895 0001036 261.3595  98.7130 15.02534900 68448
STARLINK-30541          
1 58057U 23158G   25001.07614296 -.00000481  00000+0 -20595-4 0  9996
2 58057  43.0009 221.1554 0001306 272.3016  87.7676 15.02498183 68459
STARLINK-30573          
1 58058U 23158H   25001.00298854  .00005211  00000+0  40077-3 0  9998
2 58058  43.0034 221.4674 0001230 259.4430 100.6274 15.02512782 68446
STARLINK-30582          
1 58059U 23158J   25001.32537607  .00001255  00000+0  10801-3 0  9992
2 58059  43.0074 219.5818 0002396 261.5543  98.5028 15.02518221 68493
STARLINK-30558          
1 58060U 23158K   24366.89999039  .00001123  00000+0  98209-4 0  9993
2 58060  43.0014 222.3988 0001213 266.2807  93.7897 15.02537219 68423
STARLINK-30579          
1 58061U 23158L   25001.58857968  .00004342  00000+0  33634-3 0  9997
2 58061  43.0003 192.8081 0001256 266.6730  93.3969 15.02534584 68825
STARLINK-30588          
1 58062U 23158M   25001.31871789  .00000820  00000+0  75775-4 0  9996
2 58062  43.0019 219.5333 0000938 269.4155  90.6580 15.02539023 68493
STARLINK-30585          
1 58063U 23158N   25001.64109702  .00004619  00000+0  35658-3 0  9997
2 58063  42.9936 217.6527 0000421  15.7829 344.3027 15.02553491 68536
STARLINK-30587          
1 58064U 23158P   25001.58796174  .00000864  00000+0  79042-4 0  9990
2 58064  42.9992 218.1161 0000686 258.6426 101.4339 15.02537419 68533
STARLINK-30576          
1 58065U 23158Q   25001.61460318  .00014804  00000+0  11085-2 0  9993
2 58065  42.9983 218.3186 0001104 270.3786  89.6930 15.02540713 68534
STARLINK-30571          
1 58066U 23158R   25001.30206891  .00001868  00000+0  15329-3 0  9996
2 58066  43.0014 219.4094 0001357 260.4243  99.6446 15.02542189 68497
STARLINK-30567          
1 58067U 23158S   25001.62901598 -.00012915  00000+0 -94266-3 0  9992
2 58067  43.0011 218.4039 0001826 271.8371  88.2262 15.02537434 68534
STARLINK-30569          
1 58068U 23158T   25001.31538585  .00000819  00000+0  75655-4 0  9991
2 58068  43.0028 219.5079 0001281 265.6478  94.4218 15.02540163 68491
STARLINK-30480          
1 58069U 23158U   25001.48188889  .00019119  00000+0  73827-3 0  9999
2 58069  43.0028 164.5732 0001512 290.9754  69.0935 15.25935366 69158
STARLINK-30532          
1 58070U 23158V   25001.57797307  .00000612  00000+0  60339-4 0  9995
2 58070  42.9975 218.0389 0000765 268.2043  91.8711 15.02537188 68531
STARLINK-30513          
1 58071U 23158W   25001.53518173  .00015219  00000+0  37046-3 0  9991
2 58071  43.0007  48.7196 0001513 245.8727 114.1971 15.40733539 70491
STARLINK-30506          
1 58072U 23158X   25001.70427101  .00008442  00000+0  63938-3 0  9990
2 58072  43.0018 217.2653 0001101 271.9264  88.1452 15.02528493 68393
YUNHAI-1 04             
1 58073U 23159A   25001.79939043  .00000898  00000+0  34273-3 0  9991
2 58073  98.5492  31.1014 0000363 181.1504 178.9680 14.33199695 63709
STARLINK-30604          
1 58075U 23160A   25001.44586966  .00006849  00000+0  52142-3 0  9996
2 58075  43.0024 269.2631 0001509 259.5378 100.5294 15.02550682 67898
STARLINK-30500          
1 58076U 23160B   25001.45574420  .00001789  00000+0  14745-3 0  9995
2 58076  43.0009 268.4713 0000481 295.2651  64.8142 15.02537634 67901
STARLINK-30613          
1 58077U 23160C   25001.43921233 -.00000246  00000+0 -31199-5 0  9995
2 58077  43.0018 269.2127 0001080 274.8686  85.2033 15.02541503 67903
STARLINK-30597          
1 58078U 23160D   25001.78158832  .00002620  00000+0  20891-3 0  9992
2 58078  42.9974 267.4635 0001309 270.0894  89.9798 15.02542922 67950
STARLINK-30598          
1 58079U 23160E   25001.76826301 -.00005525  00000+0 -39396-3 0  9993
2 58079  43.0025 267.3780 0002081 273.8887  86.1718 15.02557534 67913
STARLINK-30603          
1 58080U 23160F   25001.43255294  .00000487  00000+0  51133-4 0  9990
2 58080  43.0008 269.1591 0001471 271.8877  88.1797 15.02549857 67890
STARLINK-30602          
1 58081U 23160G   25001.46572712  .00007334  00000+0  55723-3 0  9997
2 58081  43.0033 268.5368 0001464 254.3903 105.6778 15.02550763 67906
STARLINK-30610          
1 58082U 23160H   25001.42922335  .00008297  00000+0  62837-3 0  9997
2 58082  43.0006 269.1354 0001370 269.5219  90.5466 15.02547957 67898
STARLINK-30551          
1 58083U 23160J   25001.42588841  .00003144  00000+0  24768-3 0  9995
2 58083  43.0018 269.1060 0000967 260.8970  99.1763 15.02538671 67893
